NORAD_CAT_ID,OBJECT_NAME,OBJECT_TYPE,EPOCH,MEAN_MOTION,ECCENTRICITY,INCLINATION,RA_OF_ASC_NODE,ARG_OF_PERICENTER,MEAN_ANOMALY,BSTAR,MEAN_MOTION_DOT,MEAN_MOTION_DDOT,TLE_LINE0,TLE_LINE1,TLE_LINE2,SEMIMAJOR_AXIS,PERIOD,APOGEE,PERIGEE,DECAYED
52304.0,STARLINK-3744,PAYLOAD,2022-05-24 14:00:01,15.73148605,0.0004115,53.2153,211.974,1.4511,246.7446,0.00071646,0.00100957,0.0,0 STARLINK-3744,1 52304U 22041AV  22144.58334491  .00100957  00000-0  71646-3 0  9992,2 52304  53.2153 211.9740 0004115   1.4511 246.7446 15.73148605  6416,6728.042,91.536,352.675,347.13800000000015,0.0
52304.0,STARLINK-3744,PAYLOAD,2022-05-24 22:00:00,15.73244253,0.0003973,53.2155,210.3228,0.7501,336.3528,-0.00018436,-0.00026478,0.0,0 STARLINK-3744,1 52304U 22041AV  22144.91667824 -.00026478  00000-0 -18436-3 0  9993,2 52304  53.2155 210.3228 0003973   0.7501 336.3528 15.73244253  1300,6727.769,91.531,352.307,346.961,0.0
52304.0,STARLINK-3744,PAYLOAD,2022-05-25 06:00:00,15.73209787,0.000395,53.2157,208.6731,0.7017,65.3725,0.00022129,0.00030571,0.0,0 STARLINK-3744,1 52304U 22041AV  22145.25001157  .00030571  00000-0  22129-3 0  9993,2 52304  53.2157 208.6731 0003950   0.7017  65.3725 15.73209787  6517,6727.8669999999975,91.533,352.39,347.075,0.0
52304.0,STARLINK-3744,PAYLOAD,2022-05-25 14:00:01,15.73215764,0.0004212,53.2154,207.0254,359.0104,156.0145,-4.6054e-05,-7.091e-05,0.0,0 STARLINK-3744,1 52304U 22041AV  22145.58334491 -.00007091  00000-0 -46054-4 0  9996,2 52304  53.2154 207.0254 0004212 359.0104 156.0145 15.73215764  1304,6727.85,91.532,352.5490000000001,346.881,0.0
52304.0,STARLINK-3744,PAYLOAD,2022-05-25 22:00:00,15.7322476,0.0003936,53.2151,205.374,356.4494,247.5427,-0.0003358,-0.00047558,0.0,0 STARLINK-3744,1 52304U 22041AV  22145.91667824 -.00047558  00000-0 -33580-3 0  9993,2 52304  53.2151 205.3740 0003936 356.4494 247.5427 15.73224760  6622,6727.825,91.532,352.338,347.042,0.0
52304.0,STARLINK-3744,PAYLOAD,2022-05-26 06:00:00,15.73205631,0.0003846,53.2153,203.7247,355.5789,337.3342,0.00028972,0.00040256,0.0,0 STARLINK-3744,1 52304U 22041AV  22146.25001157  .00040256  00000-0  28972-3 0  9997,2 52304  53.2153 203.7247 0003846 355.5789 337.3342 15.73205631  6670,6727.879,91.533,352.332,347.157,0.0
52304.0,STARLINK-3744,PAYLOAD,2022-05-26 10:41:22,15.73206934,0.0004013,53.2173,202.757,2.8112,357.293,1.347e-05,1.267e-05,0.0,0 STARLINK-3744,1 52304U 22041AV  22146.44539886  .00001267  00000-0  13470-4 0  9990,2 52304  53.2173 202.7570 0004013   2.8112 357.2930 15.73206934  6704,6727.875,91.533,352.44,347.041,0.0
52304.0,STARLINK-3744,PAYLOAD,2022-05-26 14:00:01,15.73237493,0.0004068,53.2152,202.077,354.0539,67.8025,-0.00047815,-0.00067338,0.0,0 STARLINK-3744,1 52304U 22041AV  22146.58334491 -.00067338  00000-0 -47815-3 0  9992,2 52304  53.2152 202.0770 0004068 354.0539  67.8025 15.73237493  1305,6727.788000000001,91.531,352.39,346.916,0.0
52304.0,STARLINK-3744,PAYLOAD,2022-05-26 22:00:00,15.73149649,0.0003883,53.2155,200.4254,350.2808,160.5386,0.00016696,0.0002283,0.0,0 STARLINK-3744,1 52304U 22041AV  22146.91667824  .00022830  00000-0  16696-3 0  9997,2 52304  53.2155 200.4254 0003883 350.2808 160.5386 15.73149649  1304,6728.0390000000025,91.536,352.516,347.291,0.0
52304.0,STARLINK-3744,PAYLOAD,2022-05-27 12:36:33,15.73199074,0.0003362,53.2167,197.4116,7.8185,352.2887,-3.0184e-05,-4.858e-05,0.0,0 STARLINK-3744,1 52304U 22041AV  22147.52538605 -.00004858  00000-0 -30184-4 0  9990,2 52304  53.2167 197.4116 0003362   7.8185 352.2887 15.73199074  6874,6727.898,91.533,352.025,347.501,0.0
52304.0,STARLINK-3744,PAYLOAD,2022-05-27 22:00:01,15.73184093,0.0003831,53.2148,195.4769,350.8485,66.7489,0.00016293,0.00022296,0.0,0 STARLINK-3744,1 52304U 22041AV  22147.91668981  .00022296  00000-0  16293-3 0  9992,2 52304  53.2148 195.4769 0003831 350.8485  66.7489 15.73184093  6937,6727.941,91.534,352.3830000000001,347.228,0.0
52304.0,STARLINK-3744,PAYLOAD,2022-05-28 03:51:20,15.73211595,0.000406,53.2167,194.2688,1.3051,358.7979,6.510299999999999e-06,2.9e-06,0.0,0 STARLINK-3744,1 52304U 22041AV  22148.16065035  .00000290  00000-0  65103-5 0  9997,2 52304  53.2167 194.2688 0004060   1.3051 358.7979 15.73211595  6977,6727.861999999999,91.533,352.459,346.996,0.0
52304.0,STARLINK-3744,PAYLOAD,2022-05-28 14:00:01,15.73254919,0.0004076,53.2147,192.18,350.7458,244.6817,-0.00010278,-0.00015065,0.0,0 STARLINK-3744,1 52304U 22041AV  22148.58334491 -.00015065  00000-0 -10278-3 0  9997,2 52304  53.2147 192.1800 0004076 350.7458 244.6817 15.73254919  7047,6727.739000000001,91.53,352.346,346.861,0.0
52304.0,STARLINK-3744,PAYLOAD,2022-05-28 22:00:00,15.73199907,0.0003829,53.2149,190.5282,348.0572,336.3755,0.00022519,0.00031108,0.0,0 STARLINK-3744,1 52304U 22041AV  22148.91667824  .00031108  00000-0  22519-3 0  9998,2 52304  53.2149 190.5282 0003829 348.0572 336.3755 15.73199907  1305,6727.895,91.533,352.337,347.184,0.0
52304.0,STARLINK-3744,PAYLOAD,2022-05-29 04:00:00,15.73221909,0.0003786,53.2151,189.2911,351.2444,309.8752,-0.00026294,-0.00037413,0.0,0 STARLINK-3744,1 52304U 22041AV  22149.16667824 -.00037413  00000-0 -26294-3 0  9997,2 52304  53.2151 189.2911 0003786 351.2444 309.8752 15.73221909  7135,6727.833000000001,91.532,352.245,347.151,0.0
52304.0,STARLINK-3744,PAYLOAD,2022-05-29 14:00:01,15.73122125,0.0004104,53.2143,187.2311,356.351,145.9182,0.00041675,0.00058098,0.0,0 STARLINK-3744,1 52304U 22041AV  22149.58334491  .00058098  00000-0  41675-3 0  9994,2 52304  53.2143 187.2311 0004104 356.3510 145.9182 15.73122125  7195,6728.1169999999975,91.538,352.74300000000005,347.221,0.0
52304.0,STARLINK-3744,PAYLOAD,2022-05-29 19:29:51,15.73175258,0.000383,53.2165,186.0946,2.026,358.0775,2.0921000000000003e-06,-3.31e-06,0.0,0 STARLINK-3744,1 52304U 22041AV  22149.81239870 -.00000331  00000-0  20921-5 0  9996,2 52304  53.2165 186.0946 0003830   2.0260 358.0775 15.73175258  6012,6727.965999999999,91.535,352.408,347.254,0.0
52304.0,STARLINK-3744,PAYLOAD,2022-05-30 10:44:37,15.73206895,0.0004006,53.2159,182.9515,358.5059,1.5948,-1.4038e-06,-8.22e-06,0.0,0 STARLINK-3744,1 52304U 22041AV  22150.44766159 -.00000822  00000-0 -14038-5 0  9990,2 52304  53.2159 182.9515 0004006 358.5059   1.5948 15.73206895  7333,6727.876,91.533,352.436,347.045,0.0
52304.0,STARLINK-3744,PAYLOAD,2022-05-30 14:00:01,15.73236799,0.0004135,53.214,182.2827,358.6617,50.3131,1.1881e-05,1.046e-05,0.0,0 STARLINK-3744,1 52304U 22041AV  22150.58334491  .00001046  00000-0  11881-4 0  9994,2 52304  53.2140 182.2827 0004135 358.6617  50.3131 15.73236799  1309,6727.79,91.531,352.43699999999984,346.87300000000016,0.0
52304.0,STARLINK-3744,PAYLOAD,2022-05-30 22:00:00,15.73189444,0.0003838,53.2143,180.6309,358.5336,139.4294,0.00037203,0.00051906,0.0,0 STARLINK-3744,1 52304U 22041AV  22150.91667824  .00051906  00000-0  37203-3 0  9995,2 52304  53.2143 180.6309 0003838 358.5336 139.4294 15.73189444  1308,6727.925,91.534,352.372,347.208,0.0
52304.0,STARLINK-3744,PAYLOAD,2022-05-31 06:00:02,15.73208053,0.0003982,53.2146,178.9823,2.6848,224.273,-0.00030511,-0.00043261,0.0,0 STARLINK-3744,1 52304U 22041AV  22151.25002315 -.00043261  00000-0 -30511-3 0  9993,2 52304  53.2146 178.9823 0003982   2.6848 224.2730 15.73208053  1303,6727.871999999999,91.533,352.416,347.05800000000005,0.0
52304.0,STARLINK-3744,PAYLOAD,2022-05-31 14:00:01,15.73180431,0.0004189,53.214,177.3337,3.6004,312.2122,0.00046643,0.00065319,0.0,0 STARLINK-3744,1 52304U 22041AV  22151.58334491  .00065319  00000-0  46643-3 0  9991,2 52304  53.2140 177.3337 0004189   3.6004 312.2122 15.73180431  7516,6727.951,91.534,352.634,346.99800000000016,0.0
52304.0,STARLINK-3744,PAYLOAD,2022-05-31 22:00:00,15.73202912,0.0003906,53.214,175.6821,5.8187,38.9311,0.00045617,0.00063916,0.0,0 STARLINK-3744,1 52304U 22041AV  22151.91667824  .00063916  00000-0  45617-3 0  9998,2 52304  53.2140 175.6821 0003906   5.8187  38.9311 15.73202912  1309,6727.887,91.533,352.38,347.124,0.0
52304.0,STARLINK-3744,PAYLOAD,2022-06-01 06:00:00,15.73243192,0.0004053,53.2141,174.0337,8.2418,125.4721,-0.00032562,-0.00046181,0.0,0 STARLINK-3744,1 52304U 22041AV  22152.25001157 -.00046181  00000-0 -32562-3 0  9999,2 52304  53.2141 174.0337 0004053   8.2418 125.4721 15.73243192  7615,6727.772,91.531,352.36400000000015,346.91,0.0
52304.0,STARLINK-3744,PAYLOAD,2022-06-01 10:00:29,15.7322698,0.0004156,53.2165,173.2062,0.3109,359.7913,2.9746e-05,3.558e-05,0.0,0 STARLINK-3744,1 52304U 22041AV  22152.41700551  .00003558  00000-0  29746-4 0  9991,2 52304  53.2165 173.2062 0004156   0.3109 359.7913 15.73226980  7645,6727.818,91.532,352.47900000000016,346.88699999999994,0.0
52304.0,STARLINK-3744,PAYLOAD,2022-06-01 20:00:01,15.73177514,0.0004012,53.2146,171.1459,7.7559,191.633,0.00037266,0.0005197,0.0,0 STARLINK-3744,1 52304U 22041AV  22152.83334491  .00051970  00000-0  37266-3 0  9999,2 52304  53.2146 171.1459 0004012   7.7559 191.6330 15.73177514  7703,6727.959,91.534,352.524,347.125,0.0
52304.0,STARLINK-3744,PAYLOAD,2022-06-03 07:44:53,15.73229662,0.0004268,53.2167,163.7737,12.0782,348.034,1.0971e-05,9.17e-06,0.0,0 STARLINK-3744,1 52304U 22041AV  22154.32284407  .00000917  00000-0  10971-4 0  9996,2 52304  53.2167 163.7737 0004268  12.0782 348.0340 15.73229662  7949,6727.811,91.531,352.547,346.80400000000014,0.0
52304.0,STARLINK-3744,PAYLOAD,2022-06-03 12:19:19,15.73230908,0.0004085,53.217,162.8317,17.2595,342.8564,1.4062e-05,1.352e-05,0.0,0 STARLINK-3744,1 52304U 22041AV  22154.51342228  .00001352  00000-0  14062-4 0  9992,2 52304  53.2170 162.8317 0004085  17.2595 342.8564 15.73230908  6756,6727.807,91.531,352.42,346.9240000000001,0.0
52304.0,STARLINK-3744,PAYLOAD,2022-06-04 05:05:36,15.73217553,0.0004064,53.2163,159.3742,13.3261,346.7866,1.2223e-05,1.093e-05,0.0,0 STARLINK-3744,1 52304U 22041AV  22155.21223100  .00001093  00000-0  12223-4 0  9996,2 52304  53.2163 159.3742 0004064  13.3261 346.7866 15.73217553  8082,6727.845,91.532,352.444,346.976,0.0
